KUIPER-00144            
1 67133U 25301A   26007.41278303  .00017451  00000+0  49949-3 0  9999
2 67133  51.8705   1.3135 0006589 158.3966 201.7299 15.36013450  4313
KUIPER-00164            
1 67134U 25301B   26007.46813241  .00027763  00000+0  77497-3 0  9997
2 67134  51.8722   0.9389 0002858 134.0684 226.0538 15.36515569  4507
KUIPER-00175            
1 67135U 25301C   26007.46095858  .00027079  00000+0  74179-3 0  9998
2 67135  51.8739   0.8881 0002819  90.1253 270.0056 15.37114455  4394
KUIPER-00179            
1 67136U 25301D   26007.46609309  .00026983  00000+0  74965-3 0  9997
2 67136  51.8734   0.9228 0003429 116.5592 243.5746 15.36677645  4501
KUIPER-00181            
1 67137U 25301E   26007.49304987 -.00002173  00000+0 -51923-4 0  9992
2 67137  51.8657   1.0897 0010356 181.9203 178.1745 15.34900650  4484
KUIPER-00183            
1 67138U 25301F   26007.49745795  .00023215  00000+0  68890-3 0  9997
2 67138  51.8635   1.1146 0011077 183.9988 176.0911 15.34647384  4497
KUIPER-00184            
1 67139U 25301G   26007.42708266  .00016243  00000+0  48247-3 0  9990
2 67139  51.8645   1.3962 0009340 182.0536 178.0413 15.34883791  4590
KUIPER-00186            
1 67140U 25301H   26007.41826991  .00031889  00000+0  91117-3 0  9994
2 67140  51.8694   1.3471 0007780 166.0693 194.0509 15.35690507  4319
KUIPER-00187            
1 67141U 25301J   26007.47246218  .00025013  00000+0  70468-3 0  9997
2 67141  51.8710   0.9658 0004935 151.9570 208.1683 15.36279928  4329
KUIPER-00188            
1 67142U 25301K   26007.41966967  .00014483  00000+0  42273-3 0  9994
2 67142  51.8708   1.3570 0007590 172.8618 187.2477 15.35545103  4317
KUIPER-00191            
1 67143U 25301L   26007.48193823  .00026844  00000+0  76912-3 0  9996
2 67143  51.8678   1.0235 0006657 167.2209 192.8947 15.35703154  4356
KUIPER-00196            
1 67144U 25301M   26007.46980582  .00025920  00000+0  72555-3 0  9994
2 67144  51.8726   0.9482 0003919 129.7537 230.3795 15.36463371  4329
KUIPER-00204            
1 67145U 25301N   26007.50002314 -.00010191  00000+0 -32184-3 0  9998
2 67145  51.8773   0.7996 0004453 101.6322  52.7808 15.31179819  4434
KUIPER-00210            
1 67146U 25301P   26007.49609716  .00018147  00000+0  54071-3 0  9992
2 67146  51.8619   1.1039 0010419 189.2742 170.8053 15.34689792  4493
KUIPER-00221            
1 67147U 25301Q   26007.47391794  .00021531  00000+0  60959-3 0  9998
2 67147  51.8718   0.9752 0004977 148.0526 212.0763 15.36216898  4322
KUIPER-00232            
1 67148U 25301R   26007.46000590  .00030511  00000+0  83499-3 0  9991
2 67148  51.8739   0.8837 0002334  79.8748 280.2501 15.37082100  4326
KUIPER-00241            
1 67149U 25301S   26007.46651530  .00028684  00000+0  79583-3 0  9995
2 67149  51.8738   0.9253 0002836 123.3425 236.7833 15.36687772  4658
KUIPER-00245            
1 67150U 25301T   26007.50002314 -.00083745  00000+0 -27269-2 0  9996
2 67150  51.8745   0.9124 0006781 161.9945 302.5089 15.31527723  3819
KUIPER-00246            
1 67151U 25301U   26007.47064943  .00021781  00000+0  61241-3 0  9998
2 67151  51.8734   0.9529 0004015 146.6365 213.4875 15.36429741  4349
KUIPER-00247            
1 67152U 25301V   26007.43393557  .00018742  00000+0  56310-3 0  9995
2 67152  51.8650   1.4411 0011170 190.8791 169.1955 15.34396485  4316
KUIPER-00248            
1 67153U 25301W   26007.48858000 -.00024968  00000+0 -71026-3 0  9990
2 67153  51.8692   1.0658 0008481 176.5040 183.6007 15.35189817  4499
KUIPER-00249            
1 67154U 25301X   26007.48610259  .00019089  00000+0  55392-3 0  9997
2 67154  51.8664   1.0478 0008397 174.6545 185.4532 15.35505125  4323
KUIPER-00250            
1 67155U 25301Y   26007.47868940  .00024382  00000+0  69274-3 0  9995
2 67155  51.8718   1.0062 0006591 163.5204 196.5998 15.36021896  4357
KUIPER-00251            
1 67156U 25301Z   26007.48800593  .00014309  00000+0  42330-3 0  9999
2 67156  51.8678   1.0607 0008997 172.5214 187.5907 15.35120516  4517
KUIPER-00252            
1 67157U 25301AA  26007.42975892  .00014352  00000+0  42895-3 0  9993
2 67157  51.8674   1.4172 0009832 184.9025 175.1866 15.34787619  4318
KUIPER-00261            
1 67158U 25301AB  26007.41281911 -.00229706  00000+0 -66926-2 0  9998
2 67158  51.8704   1.3138 0008818 155.8218 204.3183 15.35702720  4316
KUIPER-00265            
1 67159U 25301AC  26007.50002314  .00044701  00000+0  15025-2 0  9999
2 67159  51.8762   0.8617 0001712 107.6585  39.5484 15.30382455  4355
GALILEO 33              
1 67160U 25302A   25352.14605887 -.00000007  00000+0  00000+0 0  9994
2 67160  54.2406 107.2544 0008423 237.6458 122.2317  1.72906186    28
GALILEO B               
1 67161U 25302B   26002.75476967 -.00000025  00000+0  00000+0 0  9990
2 67161  54.2350 106.7647 0007180 268.5393  91.3592  1.72971423   303
GALILEO 33 (139)        
1 67162U 25302C   25356.18244914  .00000006  00000+0  00000+0 0  9992
2 67162  54.2447 107.1379 0000312 196.8367 159.4994  1.73130437   127
STARLINK-35755          
1 67163U 25303A   25351.60835648 -.00002699  85337-5  00000+0 0  9999
2 67163  43.0100  69.0834 0011500 323.6500   9.4800 16.01284782    10
STARLINK-36201          
1 67164U 25303B   25351.60835648 -.00002699  85337-5  00000+0 0  9990
2 67164  43.0100  69.0834 0011500 323.6500   9.4800 16.01284782    11
STARLINK-36186          
1 67165U 25303C   25351.60835648 -.00002699  85337-5  00000+0 0  9991
2 67165  43.0100  69.0834 0011500 323.6500   9.4800 16.01284782    12
STARLINK-36174          
1 67166U 25303D   25351.60835648 -.00002699  85337-5  00000+0 0  9992
2 67166  43.0100  69.0834 0011500 323.6500   9.4800 16.01284782    13
STARLINK-36198          
1 67167U 25303E   25351.60835648 -.00002699  85337-5  00000+0 0  9993
2 67167  43.0100  69.0834 0011500 323.6500   9.4800 16.01284782    14
STARLINK-35903          
1 67168U 25303F   25351.60835648 -.00002699  85337-5  00000+0 0  9994
2 67168  43.0100  69.0834 0011500 323.6500   9.4800 16.01284782    15
STARLINK-35839          
1 67169U 25303G   25351.60835648 -.00002699  85337-5  00000+0 0  9995
2 67169  43.0100  69.0834 0011500 323.6500   9.4800 16.01284782    16
STARLINK-35863          
1 67170U 25303H   25351.60835648 -.00002699  85337-5  00000+0 0  9997
2 67170  43.0100  69.0834 0011500 323.6500   9.4800 16.01284782    18
STARLINK-35771          
1 67171U 25303J   25351.60835648 -.00002699  85337-5  00000+0 0  9998
2 67171  43.0100  69.0834 0011500 323.6500   9.4800 16.01284782    19
STARLINK-35762          
1 67172U 25303K   25351.60835648 -.00002699  85337-5  00000+0 0  9999
2 67172  43.0100  69.0834 0011500 323.6500   9.4800 16.01284782    10
STARLINK-36183          
1 67173U 25303L   25351.60835648 -.00002699  85337-5  00000+0 0  9990
2 67173  43.0100  69.0834 0011500 323.6500   9.4800 16.01284782    11
STARLINK-36210          
1 67174U 25303M   25351.60835648 -.00002699  85337-5  00000+0 0  9991
2 67174  43.0100  69.0834 0011500 323.6500   9.4800 16.01284782    12
STARLINK-35756          
1 67175U 25303N   25351.60835648 -.00002699  85337-5  00000+0 0  9992
2 67175  43.0100  69.0834 0011500 323.6500   9.4800 16.01284782    13
STARLINK-35785          
1 67176U 25303P   25351.60835648 -.00002699  85337-5  00000+0 0  9993
2 67176  43.0100  69.0834 0011500 323.6500   9.4800 16.01284782    14
STARLINK-35853          
1 67177U 25303Q   25351.60835648 -.00002699  85337-5  00000+0 0  9994
2 67177  43.0100  69.0834 0011500 323.6500   9.4800 16.01284782    15
STARLINK-35878          
1 67178U 25303R   25351.60835648 -.00002699  85337-5  00000+0 0  9995
2 67178  43.0100  69.0834 0011500 323.6500   9.4800 16.01284782    16
STARLINK-35793          
1 67179U 25303S   25351.60835648 -.00002699  85337-5  00000+0 0  9996
2 67179  43.0100  69.0834 0011500 323.6500   9.4800 16.01284782    17
STARLINK-35876          
1 67180U 25303T   25351.60835648 -.00002699  85337-5  00000+0 0  9998
2 67180  43.0100  69.0834 0011500 323.6500   9.4800 16.01284782    19
STARLINK-35766          
1 67181U 25303U   25351.60835648 -.00002699  85337-5  00000+0 0  9999
2 67181  43.0100  69.0834 0011500 323.6500   9.4800 16.01284782    10
STARLINK-35782          
1 67182U 25303V   25351.60835648 -.00002699  85337-5  00000+0 0  9990
2 67182  43.0100  69.0834 0011500 323.6500   9.4800 16.01284782    11
STARLINK-35719          
1 67183U 25303W   25351.60835648 -.00002699  85337-5  00000+0 0  9991
2 67183  43.0100  69.0834 0011500 323.6500   9.4800 16.01284782    12
STARLINK-35910          
1 67184U 25303X   25351.60835648 -.00002699  85337-5  00000+0 0  9992
2 67184  43.0100  69.0834 0011500 323.6500   9.4800 16.01284782    13
STARLINK-35859          
1 67185U 25303Y   25351.60835648 -.00002699  85337-5  00000+0 0  9993
2 67185  43.0100  69.0834 0011500 323.6500   9.4800 16.01284782    14
STARLINK-35857          
1 67186U 25303Z   25351.60835648 -.00002699  85337-5  00000+0 0  9994
2 67186  43.0100  69.0834 0011500 323.6500   9.4800 16.01284782    15
STARLINK-35880          
1 67187U 25303AA  25351.60835648 -.00002699  85337-5  00000+0 0  9995
2 67187  43.0100  69.0834 0011500 323.6500   9.4800 16.01284782    16
STARLINK-35675          
1 67188U 25303AB  25351.60835648 -.00002699  85337-5  00000+0 0  9996
2 67188  43.0100  69.0834 0011500 323.6500   9.4800 16.01284782    17
STARLINK-35889          
1 67189U 25303AC  25351.60835648 -.00002699  85337-5  00000+0 0  9997
2 67189  43.0100  69.0834 0011500 323.6500   9.4800 16.01284782    18
STARLINK-35888          
1 67190U 25303AD  25351.60835648 -.00002699  85337-5  00000+0 0  9999
2 67190  43.0100  69.0834 0011500 323.6500   9.4800 16.01284782    10
STARLINK-35716          
1 67191U 25303AE  25351.60835648 -.00002699  85337-5  00000+0 0  9990
2 67191  43.0100  69.0834 0011500 323.6500   9.4800 16.01284782    11
